{"type": "FeatureCollection", "features": [{"type": "Feature", "properties": {"norad_id": 22675, "name": "COSMOS 2251", "group": "cosmos-2251-debris", "lat": -62.89218754059047, "lon": 144.01371155440586, "alt_km": 796.7944219732026, "timestamp": "2025-12-26T21:25:53.401811+00:00", "meta": {"OBJECT_NAME": "COSMOS 2251", "OBJECT_ID": "1993-036A", "EPOCH": "2025-12-26T13:34:38.150112", "MEAN_MOTION": 14.33209033, "ECCENTRICITY": 0.00245242, "INCLINATION": 74.0401, "RA_OF_ASC_NODE": 290.6218, "ARG_OF_PERICENTER": 9.134, "MEAN_ANOMALY": 351.0252, "EPHEMERIS_TYPE": 0, "CLASSIFICATION_TYPE": "U", "NORAD_CAT_ID": 22675, "ELEMENT_SET_NO": 999, "REV_AT_EPOCH": 69971, "BSTAR": 6.38674e-05, "MEAN_MOTION_DOT": 1.5e-06, "MEAN_MOTION_DDOT": 0}, "tle": {"line1": "1 22675U 93036A   25360.56571933  .00000150  00000+0  63867-4 0  9997", "line2": "2 22675  74.0401 290.6218 0024524   9.1340 351.0252 14.33209033699710"}}, "geometry": {"type": "Point", "coordinates": [144.01371155440586, -62.89218754059047]}}, {"type": "Feature", "properties": {"norad_id": 33757, "name": "COSMOS 2251 DEB", "group": "cosmos-2251-debris", "lat": -68.17918093511213, "lon": 163.4029322897769, "alt_km": 783.4064960764654, "timestamp": "2025-12-26T21:25:53.401834+00:00", "meta": {"OBJECT_NAME": "COSMOS 2251 DEB", "OBJECT_ID": "1993-036E", "EPOCH": "2025-12-26T14:24:04.127328", "MEAN_MOTION": 14.32584595, "ECCENTRICITY": 0.00156852, "INCLINATION": 74.0376, "RA_OF_ASC_NODE": 298.3068, "ARG_OF_PERICENTER": 309.5576, "MEAN_ANOMALY": 235.3584, "EPHEMERIS_TYPE": 0, "CLASSIFICATION_TYPE": "U", "NORAD_CAT_ID": 33757, "ELEMENT_SET_NO": 999, "REV_AT_EPOCH": 88194, "BSTAR": 5.3503889e-05, "MEAN_MOTION_DOT": 1.19e-06, "MEAN_MOTION_DDOT": 0}, "tle": {"line1": "1 33757U 93036E   25360.60004777  .00000119  00000+0  53504-4 0  9994", "line2": "2 33757  74.0376 298.3068 0015685 309.5576 235.3584 14.32584595881946"}}, "geometry": {"type": "Point", "coordinates": [163.4029322897769, -68.17918093511213]}}, {"type": "Feature", "properties": {"norad_id": 33758, "name": "COSMOS 2251 DEB", "group": "cosmos-2251-debris", "lat": 74.01469280666872, "lon": -80.59698098537797, "alt_km": 724.3988370752286, "timestamp": "2025-12-26T21:25:53.401849+00:00", "meta": {"OBJECT_NAME": "COSMOS 2251 DEB", "OBJECT_ID": "1993-036F", "EPOCH": "2025-12-26T14:41:45.344832", "MEAN_MOTION": 14.51675293, "ECCENTRICITY": 0.00170917, "INCLINATION": 74.0271, "RA_OF_ASC_NODE": 188.8989, "ARG_OF_PERICENTER": 254.6373, "MEAN_ANOMALY": 169.6191, "EPHEMERIS_TYPE": 0, "CLASSIFICATION_TYPE": "U", "NORAD_CAT_ID": 33758, "ELEMENT_SET_NO": 999, "REV_AT_EPOCH": 88506, "BSTAR": 0.00084259369, "MEAN_MOTION_DOT": 3.36e-05, "MEAN_MOTION_DDOT": 0}, "tle": {"line1": "1 33758U 93036F   25360.61233038  .00003360  00000+0  84259-3 0  9991", "line2": "2 33758  74.0271 188.8989 0017091 254.6373 169.6191 14.51675293885061"}}, "geometry": {"type": "Point", "coordinates": [-80.59698098537797, 74.01469280666872]}}, {"type": "Feature", "properties": {"norad_id": 33760, "name": "COSMOS 2251 DEB", "group": "cosmos-2251-debris", "lat": -56.7041671630465, "lon": -130.36437714990606, "alt_km": 770.2595085359462, "timestamp": "2025-12-26T21:25:53.401861+00:00", "meta": {"OBJECT_NAME": "COSMOS 2251 DEB", "OBJECT_ID": "1993-036H", "EPOCH": "2025-12-26T04:01:23.988864", "MEAN_MOTION": 14.3568128, "ECCENTRICITY": 0.00204802, "INCLINATION": 74.0318, "RA_OF_ASC_NODE": 256.813, "ARG_OF_PERICENTER": 352.0528, "MEAN_ANOMALY": 160.4164, "EPHEMERIS_TYPE": 0, "CLASSIFICATION_TYPE": "U", "NORAD_CAT_ID": 33760, "ELEMENT_SET_NO": 999, "REV_AT_EPOCH": 88317, "BSTAR": 0.00010125434, "MEAN_MOTION_DOT": 2.67e-06, "MEAN_MOTION_DDOT": 0}, "tle": {"line1": "1 33760U 93036H   25360.16763876  .00000267  00000+0  10125-3 0  9996", "line2": "2 33760  74.0318 256.8130 0020480 352.0528 160.4164 14.35681280883175"}}, "geometry": {"type": "Point", "coordinates": [-130.36437714990606, -56.7041671630465]}}, {"type": "Feature", "properties": {"norad_id": 33761, "name": "COSMOS 2251 DEB", "group": "cosmos-2251-debris", "lat": -37.27585130075753, "lon": 58.48935701715922, "alt_km": 754.5533184820488, "timestamp": "2025-12-26T21:25:53.401872+00:00", "meta": {"OBJECT_NAME": "COSMOS 2251 DEB", "OBJECT_ID": "1993-036J", "EPOCH": "2025-12-25T18:07:22.971936", "MEAN_MOTION": 14.42579332, "ECCENTRICITY": 0.00233359, "INCLINATION": 74.0347, "RA_OF_ASC_NODE": 228.0146, "ARG_OF_PERICENTER": 306.4885, "MEAN_ANOMALY": 125.9248, "EPHEMERIS_TYPE": 0, "CLASSIFICATION_TYPE": "U", "NORAD_CAT_ID": 33761, "ELEMENT_SET_NO": 999, "REV_AT_EPOCH": 88422, "BSTAR": 0.00036902596, "MEAN_MOTION_DOT": 1.202e-05, "MEAN_MOTION_DDOT": 0}, "tle": {"line1": "1 33761U 93036J   25359.75512699  .00001202  00000+0  36903-3 0  9997", "line2": "2 33761  74.0347 228.0146 0023335 306.4885 125.9248 14.42579332884225"}}, "geometry": {"type": "Point", "coordinates": [58.48935701715922, -37.27585130075753]}}, {"type": "Feature", "properties": {"norad_id": 33762, "name": "COSMOS 2251 DEB", "group": "cosmos-2251-debris", "lat": 42.324330819740666, "lon": 89.04728968995971, "alt_km": 785.5947560428958, "timestamp": "2025-12-26T21:25:53.401884+00:00", "meta": {"OBJECT_NAME": "COSMOS 2251 DEB", "OBJECT_ID": "1993-036K", "EPOCH": "2025-12-26T06:26:49.691616", "MEAN_MOTION": 14.33667965, "ECCENTRICITY": 0.00155421, "INCLINATION": 74.0422, "RA_OF_ASC_NODE": 285.2929, "ARG_OF_PERICENTER": 343.6512, "MEAN_ANOMALY": 170.6399, "EPHEMERIS_TYPE": 0, "CLASSIFICATION_TYPE": "U", "NORAD_CAT_ID": 33762, "ELEMENT_SET_NO": 999, "REV_AT_EPOCH": 88241, "BSTAR": 6.0132041e-05, "MEAN_MOTION_DOT": 1.41e-06, "MEAN_MOTION_DDOT": 0}, "tle": {"line1": "1 33762U 93036K   25360.26863069  .00000141  00000+0  60132-4 0  9999", "line2": "2 33762  74.0422 285.2929 0015542 343.6512 170.6399 14.33667965882418"}}, "geometry": {"type": "Point", "coordinates": [89.04728968995971, 42.324330819740666]}}, {"type": "Feature", "properties": {"norad_id": 33764, "name": "COSMOS 2251 DEB", "group": "cosmos-2251-debris", "lat": -32.108393535704195, "lon": 76.87295735267774, "alt_km": 749.1466437209519, "timestamp": "2025-12-26T21:25:53.401895+00:00", "meta": {"OBJECT_NAME": "COSMOS 2251 DEB", "OBJECT_ID": "1993-036M", "EPOCH": "2025-12-26T11:14:24.468000", "MEAN_MOTION": 14.39536986, "ECCENTRICITY": 0.00233115, "INCLINATION": 74.0328, "RA_OF_ASC_NODE": 247.3068, "ARG_OF_PERICENTER": 210.3416, "MEAN_ANOMALY": 323.3618, "EPHEMERIS_TYPE": 0, "CLASSIFICATION_TYPE": "U", "NORAD_CAT_ID": 33764, "ELEMENT_SET_NO": 999, "REV_AT_EPOCH": 88354, "BSTAR": 0.00028676904, "MEAN_MOTION_DOT": 8.71e-06, "MEAN_MOTION_DDOT": 0}, "tle": {"line1": "1 33764U 93036M   25360.46833875  .00000871  00000+0  28677-3 0  9992", "line2": "2 33764  74.0328 247.3068 0023311 210.3416 323.3618 14.39536986883544"}}, "geometry": {"type": "Point", "coordinates": [76.87295735267774, -32.108393535704195]}}, {"type": "Feature", "properties": {"norad_id": 33765, "name": "COSMOS 2251 DEB", "group": "cosmos-2251-debris", "lat": 46.31380510876142, "lon": 161.29513738288694, "alt_km": 574.0808256305836, "timestamp": "2025-12-26T21:25:53.401906+00:00", "meta": {"OBJECT_NAME": "COSMOS 2251 DEB", "OBJECT_ID": "1993-036N", "EPOCH": "2025-12-26T11:57:24.708960", "MEAN_MOTION": 15.10730466, "ECCENTRICITY": 0.00646914, "INCLINATION": 74.01, "RA_OF_ASC_NODE": 144.6413, "ARG_OF_PERICENTER": 234.6468, "MEAN_ANOMALY": 188.0141, "EPHEMERIS_TYPE": 0, "CLASSIFICATION_TYPE": "U", "NORAD_CAT_ID": 33765, "ELEMENT_SET_NO": 999, "REV_AT_EPOCH": 89826, "BSTAR": 0.0015366895, "MEAN_MOTION_DOT": 0.00026842, "MEAN_MOTION_DDOT": 0}, "tle": {"line1": "1 33765U 93036N   25360.49820265  .00026842  00000+0  15367-2 0  9992", "line2": "2 33765  74.0100 144.6413 0064691 234.6468 188.0141 15.10730466898269"}}, "geometry": {"type": "Point", "coordinates": [161.29513738288694, 46.31380510876142]}}, {"type": "Feature", "properties": {"norad_id": 33766, "name": "COSMOS 2251 DEB", "group": "cosmos-2251-debris", "lat": 21.557441219319475, "lon": 115.70678248319913, "alt_km": 761.3364518719009, "timestamp": "2025-12-26T21:25:53.401916+00:00", "meta": {"OBJECT_NAME": "COSMOS 2251 DEB", "OBJECT_ID": "1993-036P", "EPOCH": "2025-12-26T14:38:06.469440", "MEAN_MOTION": 14.34975396, "ECCENTRICITY": 0.00648848, "INCLINATION": 74.1863, "RA_OF_ASC_NODE": 109.7921, "ARG_OF_PERICENTER": 309.3939, "MEAN_ANOMALY": 50.1478, "EPHEMERIS_TYPE": 0, "CLASSIFICATION_TYPE": "U", "NORAD_CAT_ID": 33766, "ELEMENT_SET_NO": 999, "REV_AT_EPOCH": 87944, "BSTAR": 0.0005855923, "MEAN_MOTION_DOT": 1.682e-05, "MEAN_MOTION_DDOT": 0}, "tle": {"line1": "1 33766U 93036P   25360.60979710  .00001682  00000+0  58559-3 0  9992", "line2": "2 33766  74.1863 109.7921 0064884 309.3939  50.1478 14.34975396879449"}}, "geometry": {"type": "Point", "coordinates": [115.70678248319913, 21.557441219319475]}}, {"type": "Feature", "properties": {"norad_id": 33768, "name": "COSMOS 2251 DEB", "group": "cosmos-2251-debris", "lat": 16.751343753052492, "lon": -158.04160637858004, "alt_km": 794.5707432959371, "timestamp": "2025-12-26T21:25:53.401928+00:00", "meta": {"OBJECT_NAME": "COSMOS 2251 DEB", "OBJECT_ID": "1993-036R", "EPOCH": "2025-12-26T14:32:29.181120", "MEAN_MOTION": 13.58466369, "ECCENTRICITY": 0.03669, "INCLINATION": 74.0663, "RA_OF_ASC_NODE": 197.4891, "ARG_OF_PERICENTER": 352.2055, "MEAN_ANOMALY": 60.0908, "EPHEMERIS_TYPE": 0, "CLASSIFICATION_TYPE": "U", "NORAD_CAT_ID": 33768, "ELEMENT_SET_NO": 999, "REV_AT_EPOCH": 83484, "BSTAR": 0.00035234694, "MEAN_MOTION_DOT": 3.76e-06, "MEAN_MOTION_DDOT": 0}, "tle": {"line1": "1 33768U 93036R   25360.60589330  .00000376  00000+0  35235-3 0  9994", "line2": "2 33768  74.0663 197.4891 0366900 352.2055  60.0908 13.58466369834841"}}, "geometry": {"type": "Point", "coordinates": [-158.04160637858004, 16.751343753052492]}}]}